{"fetched_at":"2026-07-08T07:04:08.166Z","source":"https://celestrak.org/NORAD/elements/gp.php?NAME=NUSAT&FORMAT=JSON","constellation":"satellogic","records":[{"OBJECT_NAME":"NUSAT-47","OBJECT_ID":"2025-276CF","EPOCH":"2026-07-07T18:20:24.319104","CLASSIFICATION_TYPE":"U","MEAN_MOTION":15.20530709,"ECCENTRICITY":0.0000342,"INCLINATION":97.4179,"RA_OF_ASC_NODE":262.048,"ARG_OF_PERICENTER":348.7202,"MEAN_ANOMALY":11.4026,"EPHEMERIS_TYPE":0,"NORAD_CAT_ID":66743,"ELEMENT_SET_NO":999,"REV_AT_EPOCH":3355,"BSTAR":0.00019051,"MEAN_MOTION_DOT":0.00004098,"MEAN_MOTION_DDOT":0},{"OBJECT_NAME":"NUSAT-53 (JANE GOODALL)","OBJECT_ID":"2026-067S","EPOCH":"2026-07-07T16:35:12.619392","CLASSIFICATION_TYPE":"U","MEAN_MOTION":15.18798202,"ECCENTRICITY":0.0001499,"INCLINATION":97.4567,"RA_OF_ASC_NODE":146.9095,"ARG_OF_PERICENTER":13.647,"MEAN_ANOMALY":346.4804,"EPHEMERIS_TYPE":0,"NORAD_CAT_ID":68432,"ELEMENT_SET_NO":999,"REV_AT_EPOCH":1505,"BSTAR":0.00020169,"MEAN_MOTION_DOT":0.00004128,"MEAN_MOTION_DDOT":0},{"OBJECT_NAME":"NUSAT-54 (BRANCA MARQUES)","OBJECT_ID":"2026-067AC","EPOCH":"2026-07-07T19:26:56.107104","CLASSIFICATION_TYPE":"U","MEAN_MOTION":15.17949416,"ECCENTRICITY":0.0004672,"INCLINATION":97.455,"RA_OF_ASC_NODE":146.8814,"ARG_OF_PERICENTER":23.9267,"MEAN_ANOMALY":336.2183,"EPHEMERIS_TYPE":0,"NORAD_CAT_ID":68442,"ELEMENT_SET_NO":999,"REV_AT_EPOCH":1506,"BSTAR":0.00017241,"MEAN_MOTION_DOT":0.00003433,"MEAN_MOTION_DDOT":0}]}
