NUSAT-47                
1 66743U 25276CF  26188.76417036  .00004098  00000+0  19051-3 0  9996
2 66743  97.4179 262.0480 0000342 348.7202  11.4026 15.20530709 33554
NUSAT-53 (JANE GOODALL) 
1 68432U 26067S   26188.69111828  .00004128  00000+0  20169-3 0  9990
2 68432  97.4567 146.9095 0001499  13.6470 346.4804 15.18798202 15054
NUSAT-54 (BRANCA MARQU*)
1 68442U 26067AC  26188.81037161  .00003433  00000+0  17241-3 0  9997
2 68442  97.4550 146.8814 0004672  23.9267 336.2183 15.17949416 15061
